{
  "norad_id": 60602,
  "name": "STARLINK-31983",
  "history": [
    {
      "epoch": "2026-03-28T18:31:16.547520Z",
      "apogee_km": 475.96647290468354,
      "perigee_km": 474.4903950575126,
      "latitude_deg": 3.442365228158881e-06,
      "longitude_deg": 114.3300774370247,
      "height_km": 475.88003175485824,
      "semi_major_axis_km": 6853.365433981097,
      "eccentricity": 0.00010769,
      "inclination_deg": 53.1607,
      "raan_deg": 218.3364,
      "arg_perigee_deg": 70.4557,
      "mean_anomaly_deg": 289.656,
      "mean_motion_rev_day": 15.30195524
    }
  ]
}